ONEWEB-0340             
1 49206U 21083W   24337.57224909  .00000147  00000+0  34000-3 0  9993
2 49206  87.9112  87.1984 0001740 105.6947 254.4377 13.18687032157242
ONEWEB-0341             
1 49207U 21083X   24338.33891377  .00000105  00000+0  23405-3 0  9999
2 49207  87.9110  87.0579 0001405 124.0675 236.0591 13.18687796157365
ONEWEB-0342             
1 49208U 21083Y   24338.37183470  .00000037  00000+0  57900-4 0  9994
2 49208  87.9262  26.0339 0001785  94.9889 265.1448 13.20770057164058
ONEWEB-0343             
1 49209U 21083Z   24337.57540616  .00000089  00000+0  19296-3 0  9997
2 49209  87.9102  87.2070 0001012 117.0698 243.0537 13.18688168157314
ONEWEB-0344             
1 49210U 21083AA  24338.19724446  .00000151  00000+0  37951-3 0  9991
2 49210  87.8937  71.8374 0001646 120.4773 239.6519 13.13468418158559
ONEWEB-0345             
1 49211U 21083AB  24338.21470596 -.00000222  00000+0 -64151-3 0  9992
2 49211  87.8943  71.8039 0001683 122.5032 237.6260 13.13469556158563
ONEWEB-0346             
1 49212U 21083AC  24337.73664421  .00000020  00000+0  19085-4 0  9992
2 49212  87.9117  87.1872 0001941 107.1860 252.9484 13.18685099155986
ONEWEB-0348             
1 49213U 21083AD  24338.43813723  .00000029  00000+0  40519-4 0  9997
2 49213  87.9270  26.0086 0002268 113.2757 246.8615 13.20773103164099
